IRIDIUM 921             
1 24873U 97034E   24249.50368144  .00070815  00000+0  14131-2 0  9991
2 24873  86.3735 248.1359 0001383 109.9106 250.2300 15.46584559487565
IRIDIUM 26              
1 24903U 97043A   24249.85539392  .00001812  00000+0  61066-3 0  9999
2 24903  86.3942 229.8939 0002222  84.4279 275.7171 14.36551119416384
DUMMY MASS 1            
1 24925U 97048A   24249.51220924  .00001375  00000+0  15272-3 0  9991
2 24925  86.3290 266.8600 0009137  79.7347 280.4908 14.86390557462839
DUMMY MASS 2            
1 24926U 97048B   24249.56192587  .00001341  00000+0  14969-3 0  9995
2 24926  86.3290 268.3953 0010004  87.8847 272.3523 14.86147734462625
IRIDIUM 29              
1 24944U 97051A   24249.46334199  .00001455  00000+0  49570-3 0  9997
2 24944  86.3896 263.2342 0002489  92.5714 267.5767 14.35874974412401
IRIDIUM 33              
1 24946U 97051C   24249.56634565  .00000962  00000+0  33476-3 0  9990
2 24946  86.3811 262.4376 0005820 293.9039  66.1547 14.34485800411949
